NORAD_CAT_ID,OBJECT_NAME,OBJECT_TYPE,EPOCH,MEAN_MOTION,ECCENTRICITY,INCLINATION,RA_OF_ASC_NODE,ARG_OF_PERICENTER,MEAN_ANOMALY,BSTAR,MEAN_MOTION_DOT,MEAN_MOTION_DDOT,TLE_LINE0,TLE_LINE1,TLE_LINE2,SEMIMAJOR_AXIS,PERIOD,APOGEE,PERIGEE,DECAYED
54011.0,STARLINK-5124,PAYLOAD,2024-02-10 03:03:29,15.08830266,0.0001658,53.2206,9.5929,106.473,253.6444,5.2139e-05,5.42e-06,0.0,0 STARLINK-5124,1 54011U 22125AZ  24041.12742925  .00000542  00000-0  52139-4 0  9991,2 54011  53.2206   9.5929 0001658 106.4730 253.6444 15.08830266 75139,6917.91,95.438,540.922,538.628,0.0
54011.0,STARLINK-5124,PAYLOAD,2024-02-10 07:49:38,15.08838767,0.0001439,53.2181,8.6971,100.6139,259.5015,8.084e-05,9.99e-06,0.0,0 STARLINK-5124,1 54011U 22125AZ  24041.32614439  .00000999  00000-0  80840-4 0  9997,2 54011  53.2181   8.6971 0001439 100.6139 259.5015 15.08838767 75160,6917.884,95.438,540.745,538.754,0.0
54011.0,STARLINK-5124,PAYLOAD,2024-02-11 07:40:26,15.08842083,0.0001752,53.2193,4.2334,123.1207,236.9953,-6.6767e-06,-3.94e-06,0.0,0 STARLINK-5124,1 54011U 22125AZ  24042.31974579 -.00000394  00000-0 -66767-5 0  9995,2 54011  53.2193   4.2334 0001752 123.1207 236.9953 15.08842083 75269,6917.874,95.437,540.951,538.527,0.0
54011.0,STARLINK-5124,PAYLOAD,2024-02-12 02:45:03,15.0883846,0.0001438,53.2191,0.6653,109.6739,250.4408,0.00018198,2.609e-05,0.0,0 STARLINK-5124,1 54011U 22125AZ  24043.11462391  .00002609  00000-0  18198-3 0  9990,2 54011  53.2191   0.6653 0001438 109.6739 250.4408 15.08838460 75430,6917.885,95.438,540.745,538.755,0.0
54011.0,STARLINK-5124,PAYLOAD,2024-02-12 05:55:48,15.08857431,0.0001377,53.2193,0.0705,111.0056,249.1084,0.00022856,3.353e-05,0.0,0 STARLINK-5124,1 54011U 22125AZ  24043.24709166  .00003353  00000-0  22856-3 0  9991,2 54011  53.2193   0.0705 0001377 111.0056 249.1084 15.08857431 75451,6917.827,95.436,540.645,538.74,0.0
54011.0,STARLINK-5124,PAYLOAD,2024-02-13 02:35:51,15.08835394,0.0001548,53.2193,356.2064,108.1019,252.0142,2.5406e-06,-2.48e-06,0.0,0 STARLINK-5124,1 54011U 22125AZ  24044.10823347 -.00000248  00000-0  25406-5 0  9992,2 54011  53.2193 356.2064 0001548 108.1019 252.0142 15.08835394 75587,6917.894,95.438,540.83,538.689,0.0
54011.0,STARLINK-5124,PAYLOAD,2024-02-13 13:43:33,15.08841134,0.0001492,53.2198,354.1257,95.8312,264.285,5.0504e-05,5.16e-06,0.0,0 STARLINK-5124,1 54011U 22125AZ  24044.57191120  .00000516  00000-0  50504-4 0  9993,2 54011  53.2198 354.1257 0001492  95.8312 264.2850 15.08841134 75602,6917.877,95.437,540.774,538.71,0.0
54011.0,STARLINK-5124,PAYLOAD,2024-02-13 20:05:06,15.08844162,0.0001395,53.2189,352.9392,87.0192,273.096,-8.6048e-05,-1.657e-05,0.0,0 STARLINK-5124,1 54011U 22125AZ  24044.83687570 -.00001657  00000-0 -86048-4 0  9992,2 54011  53.2189 352.9392 0001395  87.0192 273.0960 15.08844162 75647,6917.868,95.437,540.698,538.768,0.0
54011.0,STARLINK-5124,PAYLOAD,2024-02-14 04:02:00,15.0885825,0.0001361,53.2186,351.4533,83.6134,276.5013,5.5291e-06,-2e-06,0.0,0 STARLINK-5124,1 54011U 22125AZ  24045.16806066 -.00000200  00000-0  55291-5 0  9991,2 54011  53.2186 351.4533 0001361  83.6134 276.5013 15.08858250 75747,6917.825,95.436,540.631,538.748,0.0
54011.0,STARLINK-5124,PAYLOAD,2024-02-14 13:34:19,15.08851731,0.0001298,53.219,349.6688,96.5971,263.5169,-3.9111e-05,-9.11e-06,0.0,0 STARLINK-5124,1 54011U 22125AZ  24045.56550259 -.00000911  00000-0 -39111-4 0  9997,2 54011  53.2190 349.6688 0001298  96.5971 263.5169 15.08851731 75759,6917.845,95.437,540.607,538.812,0.0
54011.0,STARLINK-5124,PAYLOAD,2024-02-14 19:55:52,15.08836268,0.0001432,53.2181,348.4814,85.6504,274.4651,8.793e-05,1.112e-05,0.0,0 STARLINK-5124,1 54011U 22125AZ  24045.83047357  .00001112  00000-0  87930-4 0  9991,2 54011  53.2181 348.4814 0001432  85.6504 274.4651 15.08836268 75843,6917.892,95.438,540.747,538.766,0.0
54011.0,STARLINK-5124,PAYLOAD,2024-02-15 05:28:11,15.08846691,0.0001626,53.2197,346.693,97.0799,263.0379,0.00015181,2.129e-05,0.0,0 STARLINK-5124,1 54011U 22125AZ  24046.22790576  .00002129  00000-0  15181-3 0  9990,2 54011  53.2197 346.6930 0001626  97.0799 263.0379 15.08846691 75906,6917.86,95.437,540.85,538.6,0.0
54011.0,STARLINK-5124,PAYLOAD,2024-02-15 13:25:07,15.08833547,0.0001687,53.2192,345.2081,84.8073,275.3112,1.1689e-05,-1.02e-06,0.0,0 STARLINK-5124,1 54011U 22125AZ  24046.55911933 -.00000102  00000-0  11689-4 0  9998,2 54011  53.2192 345.2081 0001687  84.8073 275.3112 15.08833547 75951,6917.9,95.438,540.932,538.598,0.0
54011.0,STARLINK-5124,PAYLOAD,2024-02-15 22:57:26,15.0883161,0.0001367,53.2189,343.4237,88.4444,271.6704,4.7231e-05,4.64e-06,0.0,0 STARLINK-5124,1 54011U 22125AZ  24046.95655980  .00000464  00000-0  47231-4 0  9991,2 54011  53.2189 343.4237 0001367  88.4444 271.6704 15.08831610 75963,6917.906,95.438,540.717,538.825,0.0
54011.0,STARLINK-5124,PAYLOAD,2024-02-16 05:19:00,15.08795743,0.0001778,53.2192,342.231,101.1647,258.9545,0.00085261,0.00013291,0.0,0 STARLINK-5124,1 54011U 22125AZ  24047.22152980  .00013291  00000-0  85261-3 0  9990,2 54011  53.2192 342.2310 0001778 101.1647 258.9545 15.08795743 76058,6918.016,95.44,541.111,538.651,0.0
54011.0,STARLINK-5124,PAYLOAD,2024-02-17 01:59:00,15.08825036,0.000121,53.2189,338.3663,102.817,257.2957,-0.00013716,-2.469e-05,0.0,0 STARLINK-5124,1 54011U 22125AZ  24048.08264337 -.00002469  00000-0 -13716-3 0  9998,2 54011  53.2189 338.3663 0001210 102.8170 257.2957 15.08825036 76183,6917.926,95.439,540.628,538.954,0.0
54011.0,STARLINK-5124,PAYLOAD,2024-02-17 05:09:46,15.08826226,0.0001164,53.2187,337.7715,100.4275,259.6849,-0.00012226,-2.232e-05,0.0,0 STARLINK-5124,1 54011U 22125AZ  24048.21512349 -.00002232  00000-0 -12226-3 0  9995,2 54011  53.2187 337.7715 0001164 100.4275 259.6849 15.08826226 76155,6917.922,95.438,540.593,538.982,0.0
54011.0,STARLINK-5124,PAYLOAD,2024-02-17 22:39:01,15.08825867,9.21e-05,53.2174,334.5046,59.1219,300.9863,4.5826e-05,4.41e-06,0.0,0 STARLINK-5124,1 54011U 22125AZ  24048.94376474  .00000441  00000-0  45826-4 0  9993,2 54011  53.2174 334.5046 0000921  59.1219 300.9863 15.08825867 76269,6917.924,95.438,540.426,539.151,0.0
54011.0,STARLINK-5124,PAYLOAD,2024-02-18 01:49:46,15.08846698,0.0001145,53.219,333.9045,106.2401,253.8717,0.0001717,2.446e-05,0.0,0 STARLINK-5124,1 54011U 22125AZ  24049.07623058  .00002446  00000-0  17170-3 0  9998,2 54011  53.2190 333.9045 0001145 106.2401 253.8717 15.08846698 76332,6917.86,95.437,540.517,538.933,0.0
54011.0,STARLINK-5124,PAYLOAD,2024-02-18 11:22:05,15.08848665,9.93e-05,53.2174,332.122,107.6827,252.4273,0.00012684,1.732e-05,0.0,0 STARLINK-5124,1 54011U 22125AZ  24049.47366966  .00001732  00000-0  12684-3 0  9996,2 54011  53.2174 332.1220 0000993 107.6827 252.4273 15.08848665 76346,6917.854,95.437,540.406,539.032,0.0
54011.0,STARLINK-5124,PAYLOAD,2024-02-18 19:19:01,15.0883237,0.000139,53.2174,330.6387,89.9644,270.1508,0.0002285,3.35e-05,0.0,0 STARLINK-5124,1 54011U 22125AZ  24049.80487866  .00003350  00000-0  22850-3 0  9990,2 54011  53.2174 330.6387 0001390  89.9644 270.1508 15.08832370 76449,6917.904,95.438,540.73,538.807,0.0
54011.0,STARLINK-5124,PAYLOAD,2024-02-18 22:29:47,15.08833448,0.0001408,53.2173,330.044,91.3429,268.7725,0.00021931,3.203e-05,0.0,0 STARLINK-5124,1 54011U 22125AZ  24049.93735869  .00003203  00000-0  21931-3 0  9999,2 54011  53.2173 330.0440 0001408  91.3429 268.7725 15.08833448 76418,6917.9,95.438,540.739,538.791,0.0
54011.0,STARLINK-5124,PAYLOAD,2024-02-19 11:12:52,15.08838065,0.0001255,53.2179,327.665,83.502,276.6115,0.00017737,2.536e-05,0.0,0 STARLINK-5124,1 54011U 22125AZ  24050.46727739  .00002536  00000-0  17737-3 0  9993,2 54011  53.2179 327.6650 0001255  83.5020 276.6115 15.08838065 76498,6917.886,95.438,540.619,538.883,0.0
54011.0,STARLINK-5124,PAYLOAD,2024-02-19 22:20:35,15.08830367,0.0001624,53.2195,325.5881,108.9673,251.1496,-0.00013609,-2.453e-05,0.0,0 STARLINK-5124,1 54011U 22125AZ  24050.93096385 -.00002453  00000-0 -13609-3 0  9995,2 54011  53.2195 325.5881 0001624 108.9673 251.1496 15.08830367 76560,6917.91,95.438,540.898,538.651,0.0
54011.0,STARLINK-5124,PAYLOAD,2024-02-20 03:06:45,15.08833228,0.0001686,53.2184,324.69,75.3547,284.7632,-4.7849e-05,-1.049e-05,0.0,0 STARLINK-5124,1 54011U 22125AZ  24051.12969040 -.00001049  00000-0 -47849-4 0  9998,2 54011  53.2184 324.6900 0001686  75.3547 284.7632 15.08833228 76647,6917.901,95.438,540.932,538.6,0.0
54011.0,STARLINK-5124,PAYLOAD,2024-02-20 11:03:40,15.0883842,0.0001575,53.2178,323.2041,84.8278,275.2894,-5.7878e-05,-1.209e-05,0.0,0 STARLINK-5124,1 54011U 22125AZ  24051.46088748 -.00001209  00000-0 -57878-4 0  9993,2 54011  53.2178 323.2041 0001575  84.8278 275.2894 15.08838420 76648,6917.885,95.438,540.84,538.661,0.0
54011.0,STARLINK-5124,PAYLOAD,2024-02-20 22:11:22,15.0884083,0.0001624,53.2189,321.12,82.5177,277.5999,0.00013514,1.863e-05,0.0,0 STARLINK-5124,1 54011U 22125AZ  24051.92456219  .00001863  00000-0  13514-3 0  9998,2 54011  53.2189 321.1200 0001624  82.5177 277.5999 15.08840830 76719,6917.878,95.438,540.866,538.619,0.0
54011.0,STARLINK-5124,PAYLOAD,2024-02-21 02:57:31,15.08849689,0.0001598,53.2186,320.2278,84.2963,275.8212,0.00021446,3.128e-05,0.0,0 STARLINK-5124,1 54011U 22125AZ  24052.12327792  .00003128  00000-0  21446-3 0  9993,2 54011  53.2186 320.2278 0001598  84.2963 275.8212 15.08849689 76791,6917.851,95.437,540.821,538.61,0.0
54011.0,STARLINK-5124,PAYLOAD,2024-02-21 10:54:27,15.08840002,0.0001591,53.2176,318.7425,88.1328,271.9846,1.4108e-05,-6.3e-07,0.0,0 STARLINK-5124,1 54011U 22125AZ  24052.45448288 -.00000063  00000-0  14108-4 0  9997,2 54011  53.2176 318.7425 0001591  88.1328 271.9846 15.08840002 76843,6917.88,95.438,540.846,538.645,0.0
54011.0,STARLINK-5124,PAYLOAD,2024-02-21 22:02:09,15.0883471,0.0002011,53.2186,316.659,87.0292,273.093,0.00016342,2.313e-05,0.0,0 STARLINK-5124,1 54011U 22125AZ  24052.91816937  .00002313  00000-0  16342-3 0  9998,2 54011  53.2186 316.6590 0002011  87.0292 273.0930 15.08834710 76868,6917.897,95.438,541.153,538.37,0.0
